GLOBALSTAR M035         
1 25851U 99037A   25186.86704773 -.00000069  00000+0 -21179-3 0  9992
2 25851  51.9981  13.3079 0013964  15.2792  92.6973 11.04538455 98322
GLOBALSTAR M032         
1 25852U 99037B   25186.37541191 -.00000026  00000+0  12972-2 0  9994
2 25852  51.9909 198.3471 0012216 197.6916 162.3459 11.19062025136828
GLOBALSTAR M051         
1 25853U 99037C   25186.86990703 -.00000087  00000+0 -36703-3 0  9993
2 25853  51.9821 355.8226 0000375 155.7167 204.3661 11.42204618134547
GLOBALSTAR M030         
1 25854U 99037D   25186.94856895 -.00000057  00000+0  37764-3 0  9990
2 25854  51.9849 160.5451 0003105  73.9789 286.1369 11.55108859152215
GLOBALSTAR M048         
1 25872U 99041A   25186.64098265 -.00000069  00000+0  37679-4 0  9990
2 25872  51.9383 292.1241 0013588 214.6528 255.2138 11.33857679127072
GLOBALSTAR M026         
1 25873U 99041B   25186.92910323  .00000033  00000+0  35783-2 0  9992
2 25873  51.9993 130.9314 0002260 314.7462  87.8895 11.06841614150565
GLOBALSTAR M043         
1 25874U 99041C   25186.92503843 -.00000091  00000+0 -69263-3 0  9995
2 25874  51.9423  39.8386 0013459 347.2254 118.0059 11.25695340124982
GLOBALSTAR M028         
1 25875U 99041D   25186.77549407 -.00000092  00000+0  54680-4 0  9993
2 25875  51.9609 137.6369 0063376 111.4870 249.2764 12.50584364192500
